{"type": "FeatureCollection", "features": [ {"type": "Feature", "properties": {"norad_id": 31552, "name": "FENGYUN 1C DEB", "group": "fengyun-1c-debris", "lat": -12.521725573940335, "lon": 121.82902017416382, "alt_km": 682.841931422865, "timestamp": "2025-12-23T20:42:37.359084+00:00", "meta": {"OBJECT_NAME": "FENGYUN 1C DEB", "OBJECT_ID": "1999-025BYT", "EPOCH": "2025-12-21T07:18:56.009088", "MEAN_MOTION": 14.45828305, "ECCENTRICITY": 0.00854077, "INCLINATION": 98.6203, "RA_OF_ASC_NODE": 117.2993, "ARG_OF_PERICENTER": 354.4564, "MEAN_ANOMALY": 5.5674, "EPHEMERIS_TYPE": 0, "CLASSIFICATION_TYPE": "U", "NORAD_CAT_ID": 31552, "ELEMENT_SET_NO": 999, "REV_AT_EPOCH": 96000, "BSTAR": 0.0019149966, "MEAN_MOTION_DOT": 7.068e-05, "MEAN_MOTION_DDOT": 0}, "tle": {"line1": "1 31552U 99025BYT 25355.30481492  .00007068  00000+0  19150-2 0  9990", "line2": "2 31552  98.6203 117.2993 0085407 354.4564   5.5674 14.45828305960005"}}, "geometry": {"type": "Point", "coordinates": [121.82902017416382, -12.521725573940335]}}, {"type": "Feature", "properties": {"norad_id": 31553, "name": "FENGYUN 1C DEB", "group": "fengyun-1c-debris", "lat": -6.924766511467613, "lon": 54.09880668656346, "alt_km": 789.9369010499368, "timestamp": "2025-12-23T20:42:37.359094+00:00", "meta": {"OBJECT_NAME": "FENGYUN 1C DEB", "OBJECT_ID": "1999-025BYU", "EPOCH": "2025-12-23T02:24:46.896192", "MEAN_MOTION": 14.3023876, "ECCENTRICITY": 0.00291199, "INCLINATION": 99.0026, "RA_OF_ASC_NODE": 52.2072, "ARG_OF_PERICENTER": 72.3355, "MEAN_ANOMALY": 317.8635, "EPHEMERIS_TYPE": 0, "CLASSIFICATION_TYPE": "U", "NORAD_CAT_ID": 31553, "ELEMENT_SET_NO": 999, "REV_AT_EPOCH": 96058, "BSTAR": 0.0017662347, "MEAN_MOTION_DOT": 4.555e-05, "MEAN_MOTION_DDOT": 0}, "tle": {"line1": "1 31553U 99025BYU 25357.10054278  .00004555  00000+0  17662-2 0  9993", "line2": "2 31553  99.0026  52.2072 0029119  72.3355 317.8635 14.30238760960585"}}, "geometry": {"type": "Point", "coordinates": [54.09880668656346, -6.924766511467613]}}, {"type": "Feature", "properties": {"norad_id": 31555, "name": "FENGYUN 1C DEB", "group": "fengyun-1c-debris", "lat": -40.60445363612722, "lon": -39.312601587737234, "alt_km": 850.5187540698762, "timestamp": "2025-12-23T20:42:37.359105+00:00", "meta": {"OBJECT_NAME": "FENGYUN 1C DEB", "OBJECT_ID": "1999-025BYW", "EPOCH": "2025-12-15T03:24:33.183936", "MEAN_MOTION": 14.44273721, "ECCENTRICITY": 0.0154509, "INCLINATION": 99.1032, "RA_OF_ASC_NODE": 303.4548, "ARG_OF_PERICENTER": 189.1993, "MEAN_ANOMALY": 170.6358, "EPHEMERIS_TYPE": 0, "CLASSIFICATION_TYPE": "U", "NORAD_CAT_ID": 31555, "ELEMENT_SET_NO": 999, "REV_AT_EPOCH": 96598, "BSTAR": 0.00082122942, "MEAN_MOTION_DOT": 3.21e-05, "MEAN_MOTION_DDOT": 0}, "tle": {"line1": "1 31555U 99025BYW 25349.14205074  .00003210  00000+0  82123-3 0  9994", "line2": "2 31555  99.1032 303.4548 0154509 189.1993 170.6358 14.44273721965988"}}, "geometry": {"type": "Point", "coordinates": [-39.312601587737234, -40.60445363612722]}}, {"type": "Feature", "properties": {"norad_id": 31558, "name": "FENGYUN 1C DEB", "group": "fengyun-1c-debris", "lat": 18.128012776934618, "lon": -109.37452674541149, "alt_km": 891.6827908008672, "timestamp": "2025-12-23T20:42:37.359115+00:00", "meta": {"OBJECT_NAME": "FENGYUN 1C DEB", "OBJECT_ID": "1999-025BYZ", "EPOCH": "2025-12-22T16:23:19.137696", "MEAN_MOTION": 14.38720033, "ECCENTRICITY": 0.02107945, "INCLINATION": 98.791, "RA_OF_ASC_NODE": 252.3201, "ARG_OF_PERICENTER": 232.6302, "MEAN_ANOMALY": 156.0195, "EPHEMERIS_TYPE": 0, "CLASSIFICATION_TYPE": "U", "NORAD_CAT_ID": 31558, "ELEMENT_SET_NO": 999, "REV_AT_EPOCH": 97578, "BSTAR": 0.00020316862, "MEAN_MOTION_DOT": 7.5e-06, "MEAN_MOTION_DDOT": 0}, "tle": {"line1": "1 31558U 99025BYZ 25356.68286039  .00000750  00000+0  20317-3 0  9997", "line2": "2 31558  98.7910 252.3201 0210794 232.6302 156.0195 14.38720033975788"}}, "geometry": {"type": "Point", "coordinates": [-109.37452674541149, 18.128012776934618]}}, {"type": "Feature", "properties": {"norad_id": 31559, "name": "FENGYUN 1C DEB", "group": "fengyun-1c-debris", "lat": 20.812811311642182, "lon": 136.20989621906602, "alt_km": 642.6103918405433, "timestamp": "2025-12-23T20:42:37.359125+00:00", "meta": {"OBJECT_NAME": "FENGYUN 1C DEB", "OBJECT_ID": "1999-025BZA", "EPOCH": "2025-12-21T02:38:29.054400", "MEAN_MOTION": 14.63673051, "ECCENTRICITY": 0.00546061, "INCLINATION": 98.8657, "RA_OF_ASC_NODE": 309.8494, "ARG_OF_PERICENTER": 167.4139, "MEAN_ANOMALY": 254.2122, "EPHEMERIS_TYPE": 0, "CLASSIFICATION_TYPE": "U", "NORAD_CAT_ID": 31559, "ELEMENT_SET_NO": 999, "REV_AT_EPOCH": 97679, "BSTAR": 0.0010716244, "MEAN_MOTION_DOT": 5.643e-05, "MEAN_MOTION_DDOT": 0}, "tle": {"line1": "1 31559U 99025BZA 25355.11005850  .00005643  00000+0  10716-2 0  9992", "line2": "2 31559  98.8657 309.8494 0054606 167.4139 254.2122 14.63673051976799"}}, "geometry": {"type": "Point", "coordinates": [136.20989621906602, 20.812811311642182]}}, {"type": "Feature", "properties": {"norad_id": 31560, "name": "FENGYUN 1C DEB", "group": "fengyun-1c-debris", "lat": -30.273847080622343, "lon": -151.38725251803092, "alt_km": 790.4389895049699, "timestamp": "2025-12-23T20:42:37.359136+00:00", "meta": {"OBJECT_NAME": "FENGYUN 1C DEB", "OBJECT_ID": "1999-025BZB", "EPOCH": "2025-12-22T08:13:41.258496", "MEAN_MOTION": 14.21225124, "ECCENTRICITY": 0.01197267, "INCLINATION": 98.5877, "RA_OF_ASC_NODE": 32.195, "ARG_OF_PERICENTER": 280.3848, "MEAN_ANOMALY": 78.3853, "EPHEMERIS_TYPE": 0, "CLASSIFICATION_TYPE": "U", "NORAD_CAT_ID": 31560, "ELEMENT_SET_NO": 999, "REV_AT_EPOCH": 96755, "BSTAR": 6.0117435e-05, "MEAN_MOTION_DOT": 9.7e-07, "MEAN_MOTION_DDOT": 0}, "tle": {"line1": "1 31560U 99025BZB 25356.34283864  .00000097  00000+0  60117-4 0  9993", "line2": "2 31560  98.5877  32.1950 0119726 280.3848  78.3853 14.21225124967550"}}, "geometry": {"type": "Point", "coordinates": [-151.38725251803092, -30.273847080622343]}}, {"type": "Feature", "properties": {"norad_id": 31561, "name": "FENGYUN 1C DEB", "group": "fengyun-1c-debris", "lat": -21.631020332730056, "lon": 169.9434589712061, "alt_km": 863.0442739290584, "timestamp": "2025-12-23T20:42:37.359146+00:00", "meta": {"OBJECT_NAME": "FENGYUN 1C DEB", "OBJECT_ID": "1999-025BZC", "EPOCH": "2025-12-20T23:33:17.908992", "MEAN_MOTION": 14.02778794, "ECCENTRICITY": 0.00566616, "INCLINATION": 98.7174, "RA_OF_ASC_NODE": 350.6731, "ARG_OF_PERICENTER": 159.4505, "MEAN_ANOMALY": 258.4302, "EPHEMERIS_TYPE": 0, "CLASSIFICATION_TYPE": "U", "NORAD_CAT_ID": 31561, "ELEMENT_SET_NO": 999, "REV_AT_EPOCH": 95294, "BSTAR": 0.00022914547, "MEAN_MOTION_DOT": 3.18e-06, "MEAN_MOTION_DDOT": 0}, "tle": {"line1": "1 31561U 99025BZC 25354.98145728  .00000318  00000+0  22915-3 0  9997", "line2": "2 31561  98.7174 350.6731 0056661 159.4505 258.4302 14.02778794952944"}}, "geometry": {"type": "Point", "coordinates": [169.9434589712061, -21.631020332730056]}}, {"type": "Feature", "properties": {"norad_id": 31562, "name": "FENGYUN 1C DEB", "group": "fengyun-1c-debris", "lat": 3.959493982754286, "lon": -29.007980712325175, "alt_km": 742.8036240856045, "timestamp": "2025-12-23T20:42:37.359156+00:00", "meta": {"OBJECT_NAME": "FENGYUN 1C DEB", "OBJECT_ID": "1999-025BZD", "EPOCH": "2025-12-22T08:55:24.100608", "MEAN_MOTION": 14.42118471, "ECCENTRICITY": 0.00571743, "INCLINATION": 99.2584, "RA_OF_ASC_NODE": 148.7288, "ARG_OF_PERICENTER": 254.8118, "MEAN_ANOMALY": 104.6741, "EPHEMERIS_TYPE": 0, "CLASSIFICATION_TYPE": "U", "NORAD_CAT_ID": 31562, "ELEMENT_SET_NO": 999, "REV_AT_EPOCH": 97129, "BSTAR": 0.00099763212, "MEAN_MOTION_DOT": 3.294e-05, "MEAN_MOTION_DDOT": 0}, "tle": {"line1": "1 31562U 99025BZD 25356.37180672  .00003294  00000+0  99763-3 0  9991", "line2": "2 31562  99.2584 148.7288 0057174 254.8118 104.6741 14.42118471971291"}}, "geometry": {"type": "Point", "coordinates": [-29.007980712325175, 3.959493982754286]}}, {"type": "Feature", "properties": {"norad_id": 31563, "name": "FENGYUN 1C DEB", "group": "fengyun-1c-debris", "lat": 57.48167161685715, "lon": 138.0223782833849, "alt_km": 592.4012048193708, "timestamp": "2025-12-23T20:42:37.359166+00:00", "meta": {"OBJECT_NAME": "FENGYUN 1C DEB", "OBJECT_ID": "1999-025BZE", "EPOCH": "2025-12-23T04:03:42.439680", "MEAN_MOTION": 14.65358506, "ECCENTRICITY": 0.01136886, "INCLINATION": 98.9533, "RA_OF_ASC_NODE": 151.5846, "ARG_OF_PERICENTER": 47.0272, "MEAN_ANOMALY": 314.0393, "EPHEMERIS_TYPE": 0, "CLASSIFICATION_TYPE": "U", "NORAD_CAT_ID": 31563, "ELEMENT_SET_NO": 999, "REV_AT_EPOCH": 98697, "BSTAR": 0.00048604769, "MEAN_MOTION_DOT": 2.826e-05, "MEAN_MOTION_DDOT": 0}, "tle": {"line1": "1 31563U 99025BZE 25357.16924120  .00002826  00000+0  48605-3 0  9993", "line2": "2 31563  98.9533 151.5846 0113688  47.0272 314.0393 14.65358506986971"}}, "geometry": {"type": "Point", "coordinates": [138.0223782833849, 57.48167161685715]}}, {"type": "Feature", "properties": {"norad_id": 31565, "name": "FENGYUN 1C DEB", "group": "fengyun-1c-debris", "lat": 31.165199438045956, "lon": -133.84165394675816, "alt_km": 727.8414872401481, "timestamp": "2025-12-23T20:42:37.359176+00:00", "meta": {"OBJECT_NAME": "FENGYUN 1C DEB", "OBJECT_ID": "1999-025BZG", "EPOCH": "2025-12-22T09:31:28.862112", "MEAN_MOTION": 14.39101299, "ECCENTRICITY": 0.00571858, "INCLINATION": 100.7166, "RA_OF_ASC_NODE": 230.9071, "ARG_OF_PERICENTER": 356.658, "MEAN_ANOMALY": 3.421, "EPHEMERIS_TYPE": 0, "CLASSIFICATION_TYPE": "U", "NORAD_CAT_ID": 31565, "ELEMENT_SET_NO": 999, "REV_AT_EPOCH": 64492, "BSTAR": 0.0037078807, "MEAN_MOTION_DOT": 0.00011648, "MEAN_MOTION_DDOT": 0}, "tle": {"line1": "1 31565U 99025BZG 25356.39686183  .00011648  00000+0  37079-2 0  9997", "line2": "2 31565 100.7166 230.9071 0057185 356.6580   3.4210 14.39101299644928"}}, "geometry": {"type": "Point", "coordinates": [-133.84165394675816, 31.165199438045956]}}]}